{
  "type": "FeatureCollection",
  "features": [
    {
      "type": "Feature",
      "properties": {
        "norad_id": 58647,
        "name": "TIANMU-1 13",
        "group": "weather",
        "lat": 81.35339800288027,
        "lon": -61.98915753715361,
        "alt_km": 488.37978581339485,
        "timestamp": "2025-12-02T10:50:46.915800+00:00",
        "meta_object_name": "TIANMU-1 13",
        "meta_object_id": "2023-205C",
        "meta_epoch": "2025-12-02T05:44:47.044896",
        "meta_mean_motion": 15.24315729,
        "meta_eccentricity": 0.0006475,
        "meta_inclination": 97.3632,
        "meta_ra_of_asc_node": 356.0546,
        "meta_arg_of_pericenter": 314.2389,
        "meta_mean_anomaly": 45.8316,
        "meta_ephemeris_type": 0,
        "meta_classification_type": "U",
        "meta_norad_cat_id": 58647,
        "meta_element_set_no": 999,
        "meta_rev_at_epoch": 10747,
        "meta_bstar": 0.00031143,
        "meta_mean_motion_dot": 7.549e-05,
        "meta_mean_motion_ddot": 0,
        "tle_line1": "1 58647U 23205C   25336.23943339  .00007549  00000+0  31143-3 0  9996",
        "tle_line2": "2 58647  97.3632 356.0546 0006475 314.2389  45.8316 15.24315729107478"
      },
      "geometry": {
        "type": "Point",
        "coordinates": [
          -61.98915753715361,
          81.35339800288027
        ]
      }
    },
    {
      "type": "Feature",
      "properties": {
        "norad_id": 58648,
        "name": "TIANMU-1 14",
        "group": "weather",
        "lat": 2.8547475421075696,
        "lon": 175.99079889281384,
        "alt_km": 499.52067139882456,
        "timestamp": "2025-12-02T10:50:46.915811+00:00",
        "meta_object_name": "TIANMU-1 14",
        "meta_object_id": "2023-205D",
        "meta_epoch": "2025-12-02T05:20:43.075392",
        "meta_mean_motion": 15.2429999,
        "meta_eccentricity": 0.0007404,
        "meta_inclination": 97.3564,
        "meta_ra_of_asc_node": 355.3967,
        "meta_arg_of_pericenter": 318.3316,
        "meta_mean_anomaly": 41.7357,
        "meta_ephemeris_type": 0,
        "meta_classification_type": "U",
        "meta_norad_cat_id": 58648,
        "meta_element_set_no": 999,
        "meta_rev_at_epoch": 10747,
        "meta_bstar": 0.000325,
        "meta_mean_motion_dot": 7.879e-05,
        "meta_mean_motion_ddot": 0,
        "tle_line1": "1 58648U 23205D   25336.22272078  .00007879  00000+0  32500-3 0  9995",
        "tle_line2": "2 58648  97.3564 355.3967 0007404 318.3316  41.7357 15.24299990107471"
      },
      "geometry": {
        "type": "Point",
        "coordinates": [
          175.99079889281384,
          2.8547475421075696
        ]
      }
    },
    {
      "type": "Feature",
      "properties": {
        "norad_id": 58660,
        "name": "TIANMU-1 19",
        "group": "weather",
        "lat": -49.46555724433415,
        "lon": 96.30078250316262,
        "alt_km": 487.2605371576565,
        "timestamp": "2025-12-02T10:50:46.915821+00:00",
        "meta_object_name": "TIANMU-1 19",
        "meta_object_id": "2023-208A",
        "meta_epoch": "2025-12-02T04:46:34.628160",
        "meta_mean_motion": 15.27544067,
        "meta_eccentricity": 0.0004177,
        "meta_inclination": 97.4389,
        "meta_ra_of_asc_node": 87.2595,
        "meta_arg_of_pericenter": 299.9305,
        "meta_mean_anomaly": 60.1519,
        "meta_ephemeris_type": 0,
        "meta_classification_type": "U",
        "meta_norad_cat_id": 58660,
        "meta_element_set_no": 999,
        "meta_rev_at_epoch": 10721,
        "meta_bstar": 0.00044957,
        "meta_mean_motion_dot": 0.00012047,
        "meta_mean_motion_ddot": 0,
        "tle_line1": "1 58660U 23208A   25336.19901190  .00012047  00000+0  44957-3 0  9994",
        "tle_line2": "2 58660  97.4389  87.2595 0004177 299.9305  60.1519 15.27544067107213"
      },
      "geometry": {
        "type": "Point",
        "coordinates": [
          96.30078250316262,
          -49.46555724433415
        ]
      }
    },
    {
      "type": "Feature",
      "properties": {
        "norad_id": 58661,
        "name": "TIANMU-1 20",
        "group": "weather",
        "lat": -19.689498674495745,
        "lon": 90.62678685169502,
        "alt_km": 481.00580731119226,
        "timestamp": "2025-12-02T10:50:46.915831+00:00",
        "meta_object_name": "TIANMU-1 20",
        "meta_object_id": "2023-208B",
        "meta_epoch": "2025-12-02T04:38:57.319872",
        "meta_mean_motion": 15.28737613,
        "meta_eccentricity": 0.0006533,
        "meta_inclination": 97.4326,
        "meta_ra_of_asc_node": 87.6914,
        "meta_arg_of_pericenter": 309.5949,
        "meta_mean_anomaly": 50.4713,
        "meta_ephemeris_type": 0,
        "meta_classification_type": "U",
        "meta_norad_cat_id": 58661,
        "meta_element_set_no": 999,
        "meta_rev_at_epoch": 10728,
        "meta_bstar": 0.00044046,
        "meta_mean_motion_dot": 0.00012244,
        "meta_mean_motion_ddot": 0,
        "tle_line1": "1 58661U 23208B   25336.19371898  .00012244  00000+0  44046-3 0  9999",
        "tle_line2": "2 58661  97.4326  87.6914 0006533 309.5949  50.4713 15.28737613107281"
      },
      "geometry": {
        "type": "Point",
        "coordinates": [
          90.62678685169502,
          -19.689498674495745
        ]
      }
    },
    {
      "type": "Feature",
      "properties": {
        "norad_id": 58662,
        "name": "TIANMU-1 21",
        "group": "weather",
        "lat": -71.48485713656531,
        "lon": -113.14745099176099,
        "alt_km": 476.88951851453294,
        "timestamp": "2025-12-02T10:50:46.915840+00:00",
        "meta_object_name": "TIANMU-1 21",
        "meta_object_id": "2023-208C",
        "meta_epoch": "2025-12-02T05:02:20.887872",
        "meta_mean_motion": 15.31196492,
        "meta_eccentricity": 0.0006029,
        "meta_inclination": 97.4374,
        "meta_ra_of_asc_node": 89.5693,
        "meta_arg_of_pericenter": 304.0058,
        "meta_mean_anomaly": 56.061,
        "meta_ephemeris_type": 0,
        "meta_classification_type": "U",
        "meta_norad_cat_id": 58662,
        "meta_element_set_no": 999,
        "meta_rev_at_epoch": 10738,
        "meta_bstar": 0.00046892,
        "meta_mean_motion_dot": 0.0001407,
        "meta_mean_motion_ddot": 0,
        "tle_line1": "1 58662U 23208C   25336.20996398  .00014070  00000+0  46892-3 0  9990",
        "tle_line2": "2 58662  97.4374  89.5693 0006029 304.0058  56.0610 15.31196492107388"
      },
      "geometry": {
        "type": "Point",
        "coordinates": [
          -113.14745099176099,
          -71.48485713656531
        ]
      }
    },
    {
      "type": "Feature",
      "properties": {
        "norad_id": 58663,
        "name": "TIANMU-1 22",
        "group": "weather",
        "lat": -39.75929678063566,
        "lon": 93.81539535029995,
        "alt_km": 488.28102117037815,
        "timestamp": "2025-12-02T10:50:46.915850+00:00",
        "meta_object_name": "TIANMU-1 22",
        "meta_object_id": "2023-208D",
        "meta_epoch": "2025-12-02T04:43:56.076384",
        "meta_mean_motion": 15.27320205,
        "meta_eccentricity": 0.0003167,
        "meta_inclination": 97.4383,
        "meta_ra_of_asc_node": 87.3213,
        "meta_arg_of_pericenter": 335.5261,
        "meta_mean_anomaly": 24.5827,
        "meta_ephemeris_type": 0,
        "meta_classification_type": "U",
        "meta_norad_cat_id": 58663,
        "meta_element_set_no": 999,
        "meta_rev_at_epoch": 10722,
        "meta_bstar": 0.00043207,
        "meta_mean_motion_dot": 0.00011495,
        "meta_mean_motion_ddot": 0,
        "tle_line1": "1 58663U 23208D   25336.19717681  .00011495  00000+0  43207-3 0  9990",
        "tle_line2": "2 58663  97.4383  87.3213 0003167 335.5261  24.5827 15.27320205107227"
      },
      "geometry": {
        "type": "Point",
        "coordinates": [
          93.81539535029995,
          -39.75929678063566
        ]
      }
    },
    {
      "type": "Feature",
      "properties": {
        "norad_id": 58700,
        "name": "TIANMU-1 15",
        "group": "weather",
        "lat": -16.35890993619382,
        "lon": -24.246440884384523,
        "alt_km": 500.5929426890989,
        "timestamp": "2025-12-02T10:50:46.915861+00:00",
        "meta_object_name": "TIANMU-1 15",
        "meta_object_id": "2024-004A",
        "meta_epoch": "2025-12-02T05:15:40.551840",
        "meta_mean_motion": 15.24456414,
        "meta_eccentricity": 0.0005886,
        "meta_inclination": 97.4629,
        "meta_ra_of_asc_node": 157.727,
        "meta_arg_of_pericenter": 340.3975,
        "meta_mean_anomaly": 19.7035,
        "meta_ephemeris_type": 0,
        "meta_classification_type": "U",
        "meta_norad_cat_id": 58700,
        "meta_element_set_no": 999,
        "meta_rev_at_epoch": 10574,
        "meta_bstar": 0.00033893,
        "meta_mean_motion_dot": 8.255e-05,
        "meta_mean_motion_ddot": 0,
        "tle_line1": "1 58700U 24004A   25336.21921935  .00008255  00000+0  33893-3 0  9999",
        "tle_line2": "2 58700  97.4629 157.7270 0005886 340.3975  19.7035 15.24456414105744"
      },
      "geometry": {
        "type": "Point",
        "coordinates": [
          -24.246440884384523,
          -16.35890993619382
        ]
      }
    }
  ]
}